start=new Date('2023-04-28T00:00:00.000Z').valueOf();
sats=[{"OBJECT_TYPE":"PAYLOAD","MEAN_ANOMALY":"93.8854","REV_AT_EPOCH":"1139","LAUNCH_DATE":"2023-02-17","SITE":"AFWTR","CLASSIFICATION_TYPE":"U","TIME_SYSTEM":"UTC","INCLINATION":"70.0015","SEMIMAJOR_AXIS":"6737.218","RA_OF_ASC_NODE":"315.6975","GP_ID":"230846607","DECAY_DATE":null,"PERIAPSIS":"357.150","RCS_SIZE":"LARGE","MEAN_MOTION_DDOT":"0.0000000000000","EPHEMERIS_TYPE":"0","NORAD_CAT_ID":"55651","ECCENTRICITY":"0.00028680","BSTAR":"-0.00002002200000","ELEMENT_SET_NO":"999","MEAN_ELEMENT_THEORY":"SGP4","FILE":"3894991","MEAN_MOTION_DOT":"-0.00002620","COUNTRY_CODE":"US","OBJECT_NAME":"STARLINK-5506","TLE_LINE1":"1 55651U 23021Z   23117.85868176 -.00002620  00000-0 -20022-4 0  9995","REF_FRAME":"TEME","TLE_LINE2":"2 55651  70.0015 315.6975 0002868 266.2014  93.8854 15.69935809 11394","OBJECT_ID":"2023-021Z","ARG_OF_PERICENTER":"266.2014","PERIOD":"91.723","EPOCH":"2023-04-27T20:36:30.104064","APOAPSIS":"361.015","MEAN_MOTION":"15.69935809","CENTER_NAME":"EARTH"},{"MEAN_MOTION":"15.70612512","CENTER_NAME":"EARTH","PERIOD":"91.684","EPOCH":"2023-04-27T20:35:02.826240","ARG_OF_PERICENTER":"280.2114","APOAPSIS":"361.339","OBJECT_ID":"2023-021AA","TLE_LINE1":"1 55652U 23021AA  23117.85767160  .00209088  00000-0  16490-2 0  9994","REF_FRAME":"TEME","TLE_LINE2":"2 55652  69.9997 315.6917 0006224 280.2114  79.8380 15.70612512 11386","OBJECT_NAME":"STARLINK-5487","FILE":"3894991","MEAN_MOTION_DOT":"0.00209088","COUNTRY_CODE":"US","MEAN_ELEMENT_THEORY":"SGP4","EPHEMERIS_TYPE":"0","NORAD_CAT_ID":"55652","ECCENTRICITY":"0.00062240","BSTAR":"0.00164900000000","ELEMENT_SET_NO":"999","PERIAPSIS":"352.955","RCS_SIZE":"LARGE","MEAN_MOTION_DDOT":"0.0000000000000","GP_ID":"230846309","DECAY_DATE":null,"RA_OF_ASC_NODE":"315.6917","SEMIMAJOR_AXIS":"6735.282","INCLINATION":"69.9997","TIME_SYSTEM":"UTC","SITE":"AFWTR","CLASSIFICATION_TYPE":"U","LAUNCH_DATE":"2023-02-17","OBJECT_TYPE":"PAYLOAD","MEAN_ANOMALY":"79.8380","REV_AT_EPOCH":"1138"},{"SITE":"AFWTR","CLASSIFICATION_TYPE":"U","INCLINATION":"69.9997","TIME_SYSTEM":"UTC","OBJECT_TYPE":"PAYLOAD","REV_AT_EPOCH":"1164","MEAN_ANOMALY":"84.8594","LAUNCH_DATE":"2023-02-17","GP_ID":"230839619","DECAY_DATE":null,"PERIAPSIS":"356.578","RCS_SIZE":"LARGE","MEAN_MOTION_DDOT":"0.0000000000000","SEMIMAJOR_AXIS":"6737.243","RA_OF_ASC_NODE":"316.5859","FILE":"3894751","MEAN_MOTION_DOT":"-0.00003458","COUNTRY_CODE":"US","OBJECT_NAME":"STARLINK-5067","EPHEMERIS_TYPE":"0","NORAD_CAT_ID":"55653","ECCENTRICITY":"0.00037560","ELEMENT_SET_NO":"999","BSTAR":"-0.00002699600000","MEAN_ELEMENT_THEORY":"SGP4","PERIOD":"91.724","ARG_OF_PERICENTER":"275.2173","EPOCH":"2023-04-27T12:55:55.596288","APOAPSIS":"361.639","MEAN_MOTION":"15.69926802","CENTER_NAME":"EARTH","TLE_LINE1":"1 55653U 23021AB  23117.53883792 -.00003458  00000-0 -26996-4 0  9999","REF_FRAME":"TEME","TLE_LINE2":"2 55653  69.9997 316.5859 0003756 275.2173  84.8594 15.69926802 11648","OBJECT_ID":"2023-021AB"},{"EPHEMERIS_TYPE":"0","ELEMENT_SET_NO":"999","BSTAR":"0.00004156100000","NORAD_CAT_ID":"55654","ECCENTRICITY":"0.00039290","MEAN_ELEMENT_THEORY":"SGP4","MEAN_MOTION_DOT":"0.00004793","FILE":"3894991","COUNTRY_CODE":"US","OBJECT_NAME":"STARLINK-5070","TLE_LINE1":"1 55654U 23021AC  23117.85910861  .00004793  00000-0  41561-4 0  9999","TLE_LINE2":"2 55654  69.9994 315.6980 0003929 281.8598  78.2157 15.69951211 11393","REF_FRAME":"TEME","OBJECT_ID":"2023-021AC","PERIOD":"91.723","ARG_OF_PERICENTER":"281.8598","EPOCH":"2023-04-27T20:37:06.983904","APOAPSIS":"361.686","MEAN_MOTION":"15.69951211","CENTER_NAME":"EARTH","OBJECT_TYPE":"PAYLOAD","REV_AT_EPOCH":"1139","MEAN_ANOMALY":"78.2157","LAUNCH_DATE":"2023-02-17","CLASSIFICATION_TYPE":"U","SITE":"AFWTR","TIME_SYSTEM":"UTC","INCLINATION":"69.9994","SEMIMAJOR_AXIS":"6737.174","RA_OF_ASC_NODE":"315.6980","DECAY_DATE":null,"GP_ID":"230846605","RCS_SIZE":"LARGE","PERIAPSIS":"356.392","MEAN_MOTION_DDOT":"0.0000000000000"},{"SEMIMAJOR_AXIS":"6736.588","RA_OF_ASC_NODE":"317.2975","GP_ID":"230846617","DECAY_DATE":null,"PERIAPSIS":"355.099","RCS_SIZE":"LARGE","MEAN_MOTION_DDOT":"0.0000000000000","OBJECT_TYPE":"PAYLOAD","REV_AT_EPOCH":"1129","MEAN_ANOMALY":"91.6479","LAUNCH_DATE":"2023-02-17","SITE":"AFWTR","CLASSIFICATION_TYPE":"U","TIME_SYSTEM":"UTC","INCLINATION":"69.9991","TLE_LINE1":"1 55655U 23021AD  23117.28311336  .00061933  00000-0  50797-3 0  9998","REF_FRAME":"TEME","TLE_LINE2":"2 55655  69.9991 317.2975 0004978 268.4147  91.6479 15.70155971 11295","OBJECT_ID":"2023-021AD","PERIOD":"91.711","EPOCH":"2023-04-27T06:47:40.994304","ARG_OF_PERICENTER":"268.4147","APOAPSIS":"361.806","MEAN_MOTION":"15.70155971","CENTER_NAME":"EARTH","EPHEMERIS_TYPE":"0","ECCENTRICITY":"0.00049780","NORAD_CAT_ID":"55655","BSTAR":"0.00050797000000","ELEMENT_SET_NO":"999","MEAN_ELEMENT_THEORY":"SGP4","FILE":"3894992","MEAN_MOTION_DOT":"0.00061933","COUNTRY_CODE":"US","OBJECT_NAME":"STARLINK-5267"},{"LAUNCH_DATE":"2023-02-17","MEAN_ANOMALY":"89.8869","REV_AT_EPOCH":"1136","OBJECT_TYPE":"PAYLOAD","TIME_SYSTEM":"UTC","INCLINATION":"69.9988","SITE":"AFWTR","CLASSIFICATION_TYPE":"U","RA_OF_ASC_NODE":"316.0466","SEMIMAJOR_AXIS":"6737.203","MEAN_MOTION_DDOT":"0.0000000000000","PERIAPSIS":"356.793","RCS_SIZE":"LARGE","GP_ID":"230846614","DECAY_DATE":null,"MEAN_ELEMENT_THEORY":"SGP4","NORAD_CAT_ID":"55656","ECCENTRICITY":"0.00033770","ELEMENT_SET_NO":"999","BSTAR":"-0.00001335400000","EPHEMERIS_TYPE":"0","OBJECT_NAME":"STARLINK-5326","COUNTRY_CODE":"US","FILE":"3894992","MEAN_MOTION_DOT":"-0.00001819","OBJECT_ID":"2023-021AE","REF_FRAME":"TEME","TLE_LINE2":"2 55656  69.9988 316.0466 0003377 270.1939  89.8869 15.69940865 11367","TLE_LINE1":"1 55656U 23021AE  23117.72977547 -.00001819  00000-0 -13354-4 0  9998","CENTER_NAME":"EARTH","MEAN_MOTION":"15.69940865","APOAPSIS":"361.343","PERIOD":"91.723","EPOCH":"2023-04-27T17:30:52.600608","ARG_OF_PERICENTER":"270.1939"},{"FILE":"3894992","MEAN_MOTION_DOT":"-0.00000305","COUNTRY_CODE":"US","OBJECT_NAME":"STARLINK-5328","EPHEMERIS_TYPE":"0","ECCENTRICITY":"0.00043530","NORAD_CAT_ID":"55657","ELEMENT_SET_NO":"999","BSTAR":"-0.00000076064000","MEAN_ELEMENT_THEORY":"SGP4","PERIOD":"91.724","EPOCH":"2023-04-27T12:55:10.181856","ARG_OF_PERICENTER":"282.9529","APOAPSIS":"362.018","MEAN_MOTION":"15.69934910","CENTER_NAME":"EARTH","TLE_LINE1":"1 55657U 23021AF  23117.53831229 -.00000305  00000-0 -76064-6 0  9992","REF_FRAME":"TEME","TLE_LINE2":"2 55657  70.0012 316.5852 0004353 282.9529  77.1180 15.69934910 11331","OBJECT_ID":"2023-021AF","SITE":"AFWTR","CLASSIFICATION_TYPE":"U","INCLINATION":"70.0012","TIME_SYSTEM":"UTC","OBJECT_TYPE":"PAYLOAD","MEAN_ANOMALY":"77.1180","REV_AT_EPOCH":"1133","LAUNCH_DATE":"2023-02-17","GP_ID":"230846621","DECAY_DATE":null,"PERIAPSIS":"356.153","RCS_SIZE":"LARGE","MEAN_MOTION_DDOT":"0.0000000000000","SEMIMAJOR_AXIS":"6737.220","RA_OF_ASC_NODE":"316.5852"},{"APOAPSIS":"360.664","ARG_OF_PERICENTER":"292.2883","PERIOD":"91.746","EPOCH":"2023-04-27T06:49:41.497248","CENTER_NAME":"EARTH","MEAN_MOTION":"15.69555305","TLE_LINE2":"2 55658  69.9977 317.3042 0000731 292.2883  67.8234 15.69555305 11290","REF_FRAME":"TEME","TLE_LINE1":"1 55658U 23021AG  23117.28450807 -.00037691  00000-0 -31803-3 0  9991","OBJECT_ID":"2023-021AG","COUNTRY_CODE":"US","MEAN_MOTION_DOT":"-0.00037691","FILE":"3894993","OBJECT_NAME":"STARLINK-5307","BSTAR":"-0.00031803000000","ELEMENT_SET_NO":"999","ECCENTRICITY":"0.00007310","NORAD_CAT_ID":"55658","EPHEMERIS_TYPE":"0","MEAN_ELEMENT_THEORY":"SGP4","DECAY_DATE":null,"GP_ID":"230846329","MEAN_MOTION_DDOT":"0.0000000000000","RCS_SIZE":"LARGE","PERIAPSIS":"359.679","SEMIMAJOR_AXIS":"6738.306","RA_OF_ASC_NODE":"317.3042","CLASSIFICATION_TYPE":"U","SITE":"AFWTR","TIME_SYSTEM":"UTC","INCLINATION":"69.9977","REV_AT_EPOCH":"1129","MEAN_ANOMALY":"67.8234","OBJECT_TYPE":"PAYLOAD","LAUNCH_DATE":"2023-02-17"},{"OBJECT_TYPE":"PAYLOAD","REV_AT_EPOCH":"1133","MEAN_ANOMALY":"84.0623","LAUNCH_DATE":"2023-02-17","SITE":"AFWTR","CLASSIFICATION_TYPE":"U","INCLINATION":"70.0025","TIME_SYSTEM":"UTC","SEMIMAJOR_AXIS":"6737.266","RA_OF_ASC_NODE":"316.5864","GP_ID":"230846335","DECAY_DATE":null,"PERIAPSIS":"356.154","RCS_SIZE":"LARGE","MEAN_MOTION_DDOT":"0.0000000000000","EPHEMERIS_TYPE":"0","ECCENTRICITY":"0.00044190","NORAD_CAT_ID":"55659","BSTAR":"-0.00007617100000","ELEMENT_SET_NO":"999","MEAN_ELEMENT_THEORY":"SGP4","FILE":"3894993","MEAN_MOTION_DOT":"-0.00009362","COUNTRY_CODE":"US","OBJECT_NAME":"STARLINK-5477","TLE_LINE1":"1 55659U 23021AH  23117.53821431 -.00009362  00000-0 -76171-4 0  9997","REF_FRAME":"TEME","TLE_LINE2":"2 55659  70.0025 316.5864 0004419 276.0069  84.0623 15.69918968 11330","OBJECT_ID":"2023-021AH","PERIOD":"91.724","EPOCH":"2023-04-27T12:55:01.716384","ARG_OF_PERICENTER":"276.0069","APOAPSIS":"362.108","MEAN_MOTION":"15.69918968","CENTER_NAME":"EARTH"},{"MEAN_ELEMENT_THEORY":"SGP4","EPHEMERIS_TYPE":"0","ECCENTRICITY":"0.00026500","NORAD_CAT_ID":"55660","ELEMENT_SET_NO":"999","BSTAR":"0.00001565700000","OBJECT_NAME":"STARLINK-5467","FILE":"3895024","MEAN_MOTION_DOT":"0.00001671","COUNTRY_CODE":"US","OBJECT_ID":"2023-021AJ","TLE_LINE1":"1 55660U 23021AJ  23117.85710917  .00001671  00000-0  15657-4 0  9995","REF_FRAME":"TEME","TLE_LINE2":"2 55660  70.0012 315.6914 0002650 266.5088  93.5805 15.69928825 11390","MEAN_MOTION":"15.69928825","CENTER_NAME":"EARTH","ARG_OF_PERICENTER":"266.5088","PERIOD":"91.724","EPOCH":"2023-04-27T20:34:14.232288","APOAPSIS":"360.888","LAUNCH_DATE":"2023-02-17","OBJECT_TYPE":"PAYLOAD","MEAN_ANOMALY":"93.5805","REV_AT_EPOCH":"1139","TIME_SYSTEM":"UTC","INCLINATION":"70.0012","SITE":"AFWTR","CLASSIFICATION_TYPE":"U","RA_OF_ASC_NODE":"315.6914","SEMIMAJOR_AXIS":"6737.238","PERIAPSIS":"357.317","RCS_SIZE":"LARGE","MEAN_MOTION_DDOT":"0.0000000000000","GP_ID":"230847403","DECAY_DATE":null}];
